{
  "type": "FeatureCollection",
  "features": [
    {
      "type": "Feature",
      "properties": {
        "norad_id": 66676,
        "name": "TRANSPORTER-15L",
        "group": "last-30-days",
        "lat": 40.55968365186182,
        "lon": 65.61075837389257,
        "alt_km": 514.7307059657614,
        "timestamp": "2025-12-26T12:57:37.974776+00:00",
        "meta_object_name": "TRANSPORTER-15L",
        "meta_object_id": "2025-276L",
        "meta_epoch": "2025-12-26T06:26:50.802720",
        "meta_mean_motion": 15.16834246,
        "meta_eccentricity": 0.00042317,
        "meta_inclination": 97.4384,
        "meta_ra_of_asc_node": 71.7648,
        "meta_arg_of_pericenter": 252.6742,
        "meta_mean_anomaly": 107.4029,
        "meta_ephemeris_type": 0,
        "meta_classification_type": "U",
        "meta_norad_cat_id": 66676,
        "meta_element_set_no": 999,
        "meta_rev_at_epoch": 417,
        "meta_bstar": 0.0021433292,
        "meta_mean_motion_dot": 0.00042304,
        "meta_mean_motion_ddot": 0,
        "tle_line1": "1 66676U 25276L   25360.26864355  .00042304  00000+0  21433-2 0  9995",
        "tle_line2": "2 66676  97.4384  71.7648 0004231 252.6742 107.4029 15.16834246  4174"
      },
      "geometry": {
        "type": "Point",
        "coordinates": [
          65.61075837389257,
          40.55968365186182
        ]
      }
    },
    {
      "type": "Feature",
      "properties": {
        "norad_id": 66677,
        "name": "TRANSPORTER-15M",
        "group": "last-30-days",
        "lat": 81.94009915838349,
        "lon": -40.65325955202879,
        "alt_km": 508.0911448646784,
        "timestamp": "2025-12-26T12:57:37.974786+00:00",
        "meta_object_name": "TRANSPORTER-15M",
        "meta_object_id": "2025-276M",
        "meta_epoch": "2025-12-26T06:13:18.202944",
        "meta_mean_motion": 15.17580218,
        "meta_eccentricity": 0.00038772,
        "meta_inclination": 97.4377,
        "meta_ra_of_asc_node": 71.7716,
        "meta_arg_of_pericenter": 248.3131,
        "meta_mean_anomaly": 111.769,
        "meta_ephemeris_type": 0,
        "meta_classification_type": "U",
        "meta_norad_cat_id": 66677,
        "meta_element_set_no": 999,
        "meta_rev_at_epoch": 417,
        "meta_bstar": 0.00069984486,
        "meta_mean_motion_dot": 0.00014011,
        "meta_mean_motion_ddot": 0,
        "tle_line1": "1 66677U 25276M   25360.25923846  .00014011  00000+0  69984-3 0  9994",
        "tle_line2": "2 66677  97.4377  71.7716 0003877 248.3131 111.7690 15.17580218  4172"
      },
      "geometry": {
        "type": "Point",
        "coordinates": [
          -40.65325955202879,
          81.94009915838349
        ]
      }
    },
    {
      "type": "Feature",
      "properties": {
        "norad_id": 66678,
        "name": "TRANSPORTER-15N",
        "group": "last-30-days",
        "lat": 45.318319272964466,
        "lon": 64.4313318317257,
        "alt_km": 506.5636642665204,
        "timestamp": "2025-12-26T12:57:37.974796+00:00",
        "meta_object_name": "TRANSPORTER-15N",
        "meta_object_id": "2025-276N",
        "meta_epoch": "2025-12-26T06:25:38.077248",
        "meta_mean_motion": 15.16997359,
        "meta_eccentricity": 0.00067896,
        "meta_inclination": 97.4388,
        "meta_ra_of_asc_node": 71.7561,
        "meta_arg_of_pericenter": 30.4392,
        "meta_mean_anomaly": 329.7234,
        "meta_ephemeris_type": 0,
        "meta_classification_type": "U",
        "meta_norad_cat_id": 66678,
        "meta_element_set_no": 999,
        "meta_rev_at_epoch": 417,
        "meta_bstar": 0.00064833777,
        "meta_mean_motion_dot": 0.00012763,
        "meta_mean_motion_ddot": 0,
        "tle_line1": "1 66678U 25276N   25360.26780182  .00012763  00000+0  64834-3 0  9991",
        "tle_line2": "2 66678  97.4388  71.7561 0006789  30.4392 329.7234 15.16997359  4179"
      },
      "geometry": {
        "type": "Point",
        "coordinates": [
          64.4313318317257,
          45.318319272964466
        ]
      }
    },
    {
      "type": "Feature",
      "properties": {
        "norad_id": 66679,
        "name": "TRANSPORTER-15P",
        "group": "last-30-days",
        "lat": 35.75068953685799,
        "lon": 66.62327320464398,
        "alt_km": 516.3459179426009,
        "timestamp": "2025-12-26T12:57:37.974806+00:00",
        "meta_object_name": "TRANSPORTER-15P",
        "meta_object_id": "2025-276P",
        "meta_epoch": "2025-12-26T06:28:05.935296",
        "meta_mean_motion": 15.16721197,
        "meta_eccentricity": 0.00047541,
        "meta_inclination": 97.4359,
        "meta_ra_of_asc_node": 71.7532,
        "meta_arg_of_pericenter": 242.2177,
        "meta_mean_anomaly": 117.8574,
        "meta_ephemeris_type": 0,
        "meta_classification_type": "U",
        "meta_norad_cat_id": 66679,
        "meta_element_set_no": 999,
        "meta_rev_at_epoch": 417,
        "meta_bstar": 0.00020665563,
        "meta_mean_motion_dot": 3.985e-05,
        "meta_mean_motion_ddot": 0,
        "tle_line1": "1 66679U 25276P   25360.26951314  .00003985  00000+0  20666-3 0  9990",
        "tle_line2": "2 66679  97.4359  71.7532 0004754 242.2177 117.8574 15.16721197  4178"
      },
      "geometry": {
        "type": "Point",
        "coordinates": [
          66.62327320464398,
          35.75068953685799
        ]
      }
    },
    {
      "type": "Feature",
      "properties": {
        "norad_id": 66680,
        "name": "TRANSPORTER-15Q",
        "group": "last-30-days",
        "lat": 45.52780435177796,
        "lon": 64.38849888460784,
        "alt_km": 514.6754329690102,
        "timestamp": "2025-12-26T12:57:37.974819+00:00",
        "meta_object_name": "TRANSPORTER-15Q",
        "meta_object_id": "2025-276Q",
        "meta_epoch": "2025-12-25T05:05:38.818176",
        "meta_mean_motion": 15.16866532,
        "meta_eccentricity": 0.000484,
        "meta_inclination": 97.4407,
        "meta_ra_of_asc_node": 70.7353,
        "meta_arg_of_pericenter": 236.3987,
        "meta_mean_anomaly": 123.6784,
        "meta_ephemeris_type": 0,
        "meta_classification_type": "U",
        "meta_norad_cat_id": 66680,
        "meta_element_set_no": 999,
        "meta_rev_at_epoch": 401,
        "meta_bstar": 0.00055928,
        "meta_mean_motion_dot": 0.00010954,
        "meta_mean_motion_ddot": 0,
        "tle_line1": "1 66680U 25276Q   25359.21225484  .00010954  00000+0  55928-3 0  9990",
        "tle_line2": "2 66680  97.4407  70.7353 0004840 236.3987 123.6784 15.16866532  4017"
      },
      "geometry": {
        "type": "Point",
        "coordinates": [
          64.38849888460784,
          45.52780435177796
        ]
      }
    },
    {
      "type": "Feature",
      "properties": {
        "norad_id": 66681,
        "name": "TRANSPORTER-15R",
        "group": "last-30-days",
        "lat": 79.29730202750908,
        "lon": 28.336987530527,
        "alt_km": 509.17647567530366,
        "timestamp": "2025-12-26T12:57:37.974829+00:00",
        "meta_object_name": "TRANSPORTER-15R",
        "meta_object_id": "2025-276R",
        "meta_epoch": "2025-12-26T04:41:11.992416",
        "meta_mean_motion": 15.17565628,
        "meta_eccentricity": 0.00048732,
        "meta_inclination": 97.433,
        "meta_ra_of_asc_node": 71.6888,
        "meta_arg_of_pericenter": 261.0089,
        "meta_mean_anomaly": 99.0593,
        "meta_ephemeris_type": 0,
        "meta_classification_type": "U",
        "meta_norad_cat_id": 66681,
        "meta_element_set_no": 999,
        "meta_rev_at_epoch": 416,
        "meta_bstar": 0.00085927465,
        "meta_mean_motion_dot": 0.0001722,
        "meta_mean_motion_ddot": 0,
        "tle_line1": "1 66681U 25276R   25360.19527769  .00017220  00000+0  85927-3 0  9996",
        "tle_line2": "2 66681  97.4330  71.6888 0004873 261.0089  99.0593 15.17565628  4163"
      },
      "geometry": {
        "type": "Point",
        "coordinates": [
          28.336987530527,
          79.29730202750908
        ]
      }
    },
    {
      "type": "Feature",
      "properties": {
        "norad_id": 66682,
        "name": "TRANSPORTER-15S",
        "group": "last-30-days",
        "lat": 46.62386992488951,
        "lon": 64.09889876681878,
        "alt_km": 524.3171818165947,
        "timestamp": "2025-12-26T12:57:37.974840+00:00",
        "meta_object_name": "TRANSPORTER-15S",
        "meta_object_id": "2025-276S",
        "meta_epoch": "2025-12-26T03:14:15.689184",
        "meta_mean_motion": 15.14283917,
        "meta_eccentricity": 0.00194149,
        "meta_inclination": 97.4452,
        "meta_ra_of_asc_node": 71.6579,
        "meta_arg_of_pericenter": 164.6738,
        "meta_mean_anomaly": 195.5086,
        "meta_ephemeris_type": 0,
        "meta_classification_type": "U",
        "meta_norad_cat_id": 66682,
        "meta_element_set_no": 999,
        "meta_rev_at_epoch": 415,
        "meta_bstar": 0.015164845,
        "meta_mean_motion_dot": 0.00289588,
        "meta_mean_motion_ddot": 0,
        "tle_line1": "1 66682U 25276S   25360.13490381  .00289588  00000+0  15165-1 0  9993",
        "tle_line2": "2 66682  97.4452  71.6579 0019414 164.6738 195.5086 15.14283917  4155"
      },
      "geometry": {
        "type": "Point",
        "coordinates": [
          64.09889876681878,
          46.62386992488951
        ]
      }
    }
  ]
}